{
    "links": {
        "self": "http://www.neowsapp.com/rest/v1/neo/3324685?api_key=iIulBulltgU6a56xZRHN4H3l9WmuAYTsLGpBGhQ2"
    },
    "id": "3324685",
    "neo_reference_id": "3324685",
    "name": "(2006 DU63)",
    "designation": "2006 DU63",
    "nasa_jpl_url": "http://ssd.jpl.nasa.gov/sbdb.cgi?sstr=3324685",
    "absolute_magnitude_h": 22.7,
    "estimated_diameter": {
        "kilometers": {
            "estimated_diameter_min": 0.0766575574,
            "estimated_diameter_max": 0.1714115092
        },
        "meters": {
            "estimated_diameter_min": 76.6575573531,
            "estimated_diameter_max": 171.4115092306
        },
        "miles": {
            "estimated_diameter_min": 0.0476327831,
            "estimated_diameter_max": 0.1065101409
        },
        "feet": {
            "estimated_diameter_min": 251.5011804664,
            "estimated_diameter_max": 562.3737359442
        }
    },
    "is_potentially_hazardous_asteroid": false,
    "close_approach_data": [
        {
            "close_approach_date": "2006-03-03",
            "close_approach_date_full": "2006-Mar-03 09:01",
            "epoch_date_close_approach": 1141376460000,
            "relative_velocity": {
                "kilometers_per_second": "18.1210993908",
                "kilometers_per_hour": "65235.9578069441",
                "miles_per_hour": "40535.0872273203"
            },
            "miss_distance": {
                "astronomical": "0.0605744737",
                "lunar": "23.5634702693",
                "kilometers": "9061812.241891019",
                "miles": "5630749.0258093022"
            },
            "orbiting_body": "Earth"
        }
    ],
    "orbital_data": {
        "orbit_id": "9",
        "orbit_determination_date": "2017-04-06 09:08:59",
        "first_observation_date": "2006-02-28",
        "last_observation_date": "2006-03-04",
        "data_arc_in_days": 4,
        "observations_used": 19,
        "orbit_uncertainty": "9",
        "minimum_orbit_intersection": ".0227636",
        "jupiter_tisserand_invariant": "2.801",
        "epoch_osculation": "2453797.5",
        "eccentricity": ".7315930242815826",
        "semi_major_axis": "2.853109257418628",
        "inclination": "14.62556895069829",
        "ascending_node_longitude": "153.8111123625476",
        "orbital_period": "1760.256802193521",
        "perihelion_distance": ".7657944271779535",
        "perihelion_argument": "68.24394731565897",
        "aphelion_distance": "4.940424087659302",
        "perihelion_time": "2453836.627672127152",
        "mean_anomaly": "351.9977801260466",
        "mean_motion": ".2045156136033053",
        "equinox": "J2000",
        "orbit_class": {
            "orbit_class_type": "APO",
            "orbit_class_description": "Near-Earth asteroid orbits which cross the Earth’s orbit similar to that of 1862 Apollo",
            "orbit_class_range": "a (semi-major axis) > 1.0 AU; q (perihelion) < 1.017 AU"
        }
    },
    "is_sentry_object": false
}